{"type": "FeatureCollection", "features": [ {"type": "Feature", "properties": {"norad_id": 67061, "name": "HULIANWANG DIGUI-121", "group": "last-30-days", "lat": 24.283158252350262, "lon": -5.632486003424804, "alt_km": 809.0963772275982, "timestamp": "2025-12-22T05:49:02.189183+00:00", "meta": {"OBJECT_NAME": "HULIANWANG DIGUI-121", "OBJECT_ID": "2025-295C", "EPOCH": "2025-12-21T11:09:08.115264", "MEAN_MOTION": 14.2503841, "ECCENTRICITY": 0.00133895, "INCLINATION": 50.0022, "RA_OF_ASC_NODE": 335.3907, "ARG_OF_PERICENTER": 276.5317, "MEAN_ANOMALY": 83.4072, "EPHEMERIS_TYPE": 0, "CLASSIFICATION_TYPE": "U", "NORAD_CAT_ID": 67061, "ELEMENT_SET_NO": 999, "REV_AT_EPOCH": 136, "BSTAR": 2.6356e-07, "MEAN_MOTION_DOT": -1.59e-06, "MEAN_MOTION_DDOT": 0}, "tle": {"line1": "1 67061U 25295C   25355.46467726 -.00000159  00000+0  26356-6 0  9998", "line2": "2 67061  50.0022 335.3907 0013389 276.5317  83.4072 14.25038410  1368"}}, "geometry": {"type": "Point", "coordinates": [-5.632486003424804, 24.283158252350262]}}, {"type": "Feature", "properties": {"norad_id": 67062, "name": "HULIANWANG DIGUI-122", "group": "last-30-days", "lat": 27.25030299896831, "lon": -2.271120979798144, "alt_km": 805.644292149017, "timestamp": "2025-12-22T05:49:02.189193+00:00", "meta": {"OBJECT_NAME": "HULIANWANG DIGUI-122", "OBJECT_ID": "2025-295D", "EPOCH": "2025-12-21T11:08:30.884640", "MEAN_MOTION": 14.25756317, "ECCENTRICITY": 0.00131646, "INCLINATION": 50.0054, "RA_OF_ASC_NODE": 335.3982, "ARG_OF_PERICENTER": 284.0254, "MEAN_ANOMALY": 75.9196, "EPHEMERIS_TYPE": 0, "CLASSIFICATION_TYPE": "U", "NORAD_CAT_ID": 67062, "ELEMENT_SET_NO": 999, "REV_AT_EPOCH": 136, "BSTAR": 8.5481235e-05, "MEAN_MOTION_DOT": 4.4e-07, "MEAN_MOTION_DDOT": 0}, "tle": {"line1": "1 67062U 25295D   25355.46424635  .00000044  00000+0  85481-4 0  9995", "line2": "2 67062  50.0054 335.3982 0013164 284.0254  75.9196 14.25756317  1368"}}, "geometry": {"type": "Point", "coordinates": [-2.271120979798144, 27.25030299896831]}}, {"type": "Feature", "properties": {"norad_id": 67063, "name": "HULIANWANG DIGUI-123", "group": "last-30-days", "lat": 30.569812842888805, "lon": 1.831010945863302, "alt_km": 805.3239615621223, "timestamp": "2025-12-22T05:49:02.189203+00:00", "meta": {"OBJECT_NAME": "HULIANWANG DIGUI-123", "OBJECT_ID": "2025-295E", "EPOCH": "2025-12-21T12:48:10.086912", "MEAN_MOTION": 14.25889184, "ECCENTRICITY": 0.0012477, "INCLINATION": 50.006, "RA_OF_ASC_NODE": 335.1, "ARG_OF_PERICENTER": 283.4462, "MEAN_ANOMALY": 76.5062, "EPHEMERIS_TYPE": 0, "CLASSIFICATION_TYPE": "U", "NORAD_CAT_ID": 67063, "ELEMENT_SET_NO": 999, "REV_AT_EPOCH": 137, "BSTAR": 8.262e-05, "MEAN_MOTION_DOT": 3.8e-07, "MEAN_MOTION_DDOT": 0}, "tle": {"line1": "1 67063U 25295E   25355.53345008  .00000038  00000+0  82620-4 0  9995", "line2": "2 67063  50.0060 335.1000 0012477 283.4462  76.5062 14.25889184  1374"}}, "geometry": {"type": "Point", "coordinates": [1.831010945863302, 30.569812842888805]}}, {"type": "Feature", "properties": {"norad_id": 67064, "name": "HULIANWANG DIGUI-124", "group": "last-30-days", "lat": 32.03478524839632, "lon": 3.7753687412121213, "alt_km": 805.7768533781909, "timestamp": "2025-12-22T05:49:02.189213+00:00", "meta": {"OBJECT_NAME": "HULIANWANG DIGUI-124", "OBJECT_ID": "2025-295F", "EPOCH": "2025-12-21T12:47:35.075904", "MEAN_MOTION": 14.25949632, "ECCENTRICITY": 0.0012098, "INCLINATION": 50.0035, "RA_OF_ASC_NODE": 335.0839, "ARG_OF_PERICENTER": 278.0655, "MEAN_ANOMALY": 81.8887, "EPHEMERIS_TYPE": 0, "CLASSIFICATION_TYPE": "U", "NORAD_CAT_ID": 67064, "ELEMENT_SET_NO": 999, "REV_AT_EPOCH": 137, "BSTAR": -0.00020163, "MEAN_MOTION_DOT": -6.45e-06, "MEAN_MOTION_DDOT": 0}, "tle": {"line1": "1 67064U 25295F   25355.53304486 -.00000645  00000+0 -20163-3 0  9990", "line2": "2 67064  50.0035 335.0839 0012098 278.0655  81.8887 14.25949632  1378"}}, "geometry": {"type": "Point", "coordinates": [3.7753687412121213, 32.03478524839632]}}, {"type": "Feature", "properties": {"norad_id": 67065, "name": "HULIANWANG DIGUI-125", "group": "last-30-days", "lat": 32.15447600155869, "lon": 3.940716184051782, "alt_km": 805.0162647573397, "timestamp": "2025-12-22T05:49:02.189223+00:00", "meta": {"OBJECT_NAME": "HULIANWANG DIGUI-125", "OBJECT_ID": "2025-295G", "EPOCH": "2025-12-21T11:06:37.393920", "MEAN_MOTION": 14.25954731, "ECCENTRICITY": 0.00122684, "INCLINATION": 50.0011, "RA_OF_ASC_NODE": 335.378, "ARG_OF_PERICENTER": 283.9385, "MEAN_ANOMALY": 76.0164, "EPHEMERIS_TYPE": 0, "CLASSIFICATION_TYPE": "U", "NORAD_CAT_ID": 67065, "ELEMENT_SET_NO": 999, "REV_AT_EPOCH": 136, "BSTAR": 7.9035453e-05, "MEAN_MOTION_DOT": 3e-07, "MEAN_MOTION_DDOT": 0}, "tle": {"line1": "1 67065U 25295G   25355.46293280  .00000030  00000+0  79035-4 0  9991", "line2": "2 67065  50.0011 335.3780 0012268 283.9385  76.0164 14.25954731  1364"}}, "geometry": {"type": "Point", "coordinates": [3.940716184051782, 32.15447600155869]}}, {"type": "Feature", "properties": {"norad_id": 67066, "name": "HULIANWANG DIGUI-126", "group": "last-30-days", "lat": 35.54477647979917, "lon": 8.93440485665805, "alt_km": 804.7294938882815, "timestamp": "2025-12-22T05:49:02.189233+00:00", "meta": {"OBJECT_NAME": "HULIANWANG DIGUI-126", "OBJECT_ID": "2025-295H", "EPOCH": "2025-12-21T19:29:45.742272", "MEAN_MOTION": 14.26097849, "ECCENTRICITY": 0.0011434, "INCLINATION": 50.0013, "RA_OF_ASC_NODE": 333.8916, "ARG_OF_PERICENTER": 282.3076, "MEAN_ANOMALY": 77.6558, "EPHEMERIS_TYPE": 0, "CLASSIFICATION_TYPE": "U", "NORAD_CAT_ID": 67066, "ELEMENT_SET_NO": 999, "REV_AT_EPOCH": 141, "BSTAR": 7.1485e-05, "MEAN_MOTION_DOT": 1.2e-07, "MEAN_MOTION_DDOT": 0}, "tle": {"line1": "1 67066U 25295H   25355.81233498  .00000012  00000+0  71485-4 0  9997", "line2": "2 67066  50.0013 333.8916 0011434 282.3076  77.6558 14.26097849  1414"}}, "geometry": {"type": "Point", "coordinates": [8.93440485665805, 35.54477647979917]}}, {"type": "Feature", "properties": {"norad_id": 67067, "name": "HULIANWANG DIGUI-127", "group": "last-30-days", "lat": 38.60876895873421, "lon": 14.16693814591249, "alt_km": 803.6552919324886, "timestamp": "2025-12-22T05:49:02.189246+00:00", "meta": {"OBJECT_NAME": "HULIANWANG DIGUI-127", "OBJECT_ID": "2025-295J", "EPOCH": "2025-12-21T19:28:22.761984", "MEAN_MOTION": 14.26250459, "ECCENTRICITY": 0.0010863, "INCLINATION": 50.0053, "RA_OF_ASC_NODE": 333.8944, "ARG_OF_PERICENTER": 286.1065, "MEAN_ANOMALY": 73.8653, "EPHEMERIS_TYPE": 0, "CLASSIFICATION_TYPE": "U", "NORAD_CAT_ID": 67067, "ELEMENT_SET_NO": 999, "REV_AT_EPOCH": 141, "BSTAR": -0.00027402, "MEAN_MOTION_DOT": -8.22e-06, "MEAN_MOTION_DDOT": 0}, "tle": {"line1": "1 67067U 25295J   25355.81137456 -.00000822  00000+0 -27402-3 0  9995", "line2": "2 67067  50.0053 333.8944 0010863 286.1065  73.8653 14.26250459  1417"}}, "geometry": {"type": "Point", "coordinates": [14.16693814591249, 38.60876895873421]}}, {"type": "Feature", "properties": {"norad_id": 67068, "name": "CZ-12 R/B", "group": "last-30-days", "lat": -42.92912618646238, "lon": -157.57073157533, "alt_km": 746.7576629781233, "timestamp": "2025-12-22T05:49:02.189258+00:00", "meta": {"OBJECT_NAME": "CZ-12 R/B", "OBJECT_ID": "2025-295K", "EPOCH": "2025-12-21T10:23:33.839520", "MEAN_MOTION": 14.41128985, "ECCENTRICITY": 0.00568766, "INCLINATION": 49.9943, "RA_OF_ASC_NODE": 334.5653, "ARG_OF_PERICENTER": 167.0593, "MEAN_ANOMALY": 193.1802, "EPHEMERIS_TYPE": 0, "CLASSIFICATION_TYPE": "U", "NORAD_CAT_ID": 67068, "ELEMENT_SET_NO": 999, "REV_AT_EPOCH": 136, "BSTAR": 6.275251e-06, "MEAN_MOTION_DOT": -1.48e-06, "MEAN_MOTION_DDOT": 0}, "tle": {"line1": "1 67068U 25295K   25355.43303055 -.00000148  00000+0  62753-5 0  9994", "line2": "2 67068  49.9943 334.5653 0056876 167.0593 193.1802 14.41128985  1366"}}, "geometry": {"type": "Point", "coordinates": [-157.57073157533, -42.92912618646238]}}, {"type": "Feature", "properties": {"norad_id": 67069, "name": "XIWANG-5 02", "group": "last-30-days", "lat": -24.52179858394783, "lon": 16.126264436807592, "alt_km": 524.1814016870385, "timestamp": "2025-12-22T05:49:02.189268+00:00", "meta": {"OBJECT_NAME": "XIWANG-5 02", "OBJECT_ID": "2025-296A", "EPOCH": "2025-12-21T12:36:21.225888", "MEAN_MOTION": 15.16841551, "ECCENTRICITY": 0.0014493, "INCLINATION": 41.3525, "RA_OF_ASC_NODE": 51.4607, "ARG_OF_PERICENTER": 88.2506, "MEAN_ANOMALY": 271.9975, "EPHEMERIS_TYPE": 0, "CLASSIFICATION_TYPE": "U", "NORAD_CAT_ID": 67069, "ELEMENT_SET_NO": 999, "REV_AT_EPOCH": 129, "BSTAR": 0.00048913, "MEAN_MOTION_DOT": 9.641e-05, "MEAN_MOTION_DDOT": 0}, "tle": {"line1": "1 67069U 25296A   25355.52524567  .00009641  00000+0  48913-3 0  9995", "line2": "2 67069  41.3525  51.4607 0014493  88.2506 271.9975 15.16841551  1292"}}, "geometry": {"type": "Point", "coordinates": [16.126264436807592, -24.52179858394783]}}, {"type": "Feature", "properties": {"norad_id": 67070, "name": "DEAR-5", "group": "last-30-days", "lat": -21.846193094199133, "lon": 20.245693071810418, "alt_km": 524.1185351315544, "timestamp": "2025-12-22T05:49:02.189279+00:00", "meta": {"OBJECT_NAME": "DEAR-5", "OBJECT_ID": "2025-296B", "EPOCH": "2025-12-21T15:44:46.898304", "MEAN_MOTION": 15.16890278, "ECCENTRICITY": 0.0016093, "INCLINATION": 41.3552, "RA_OF_ASC_NODE": 50.7055, "ARG_OF_PERICENTER": 90.6198, "MEAN_ANOMALY": 269.6467, "EPHEMERIS_TYPE": 0, "CLASSIFICATION_TYPE": "U", "NORAD_CAT_ID": 67070, "ELEMENT_SET_NO": 999, "REV_AT_EPOCH": 130, "BSTAR": 0.00020115, "MEAN_MOTION_DOT": 3.847e-05, "MEAN_MOTION_DDOT": 0}, "tle": {"line1": "1 67070U 25296B   25355.65609836  .00003847  00000+0  20115-3 0  9990", "line2": "2 67070  41.3552  50.7055 0016093  90.6198 269.6467 15.16890278  1307"}}, "geometry": {"type": "Point", "coordinates": [20.245693071810418, -21.846193094199133]}}]}